NORAD_CAT_ID,OBJECT_NAME,OBJECT_TYPE,EPOCH,MEAN_MOTION,ECCENTRICITY,INCLINATION,RA_OF_ASC_NODE,ARG_OF_PERICENTER,MEAN_ANOMALY,BSTAR,MEAN_MOTION_DOT,MEAN_MOTION_DDOT,TLE_LINE0,TLE_LINE1,TLE_LINE2,SEMIMAJOR_AXIS,PERIOD,APOGEE,PERIGEE,DECAYED
55631.0,STARLINK-5558,PAYLOAD,2024-06-27 20:16:04,14.98328063,0.0003257,70.0002,327.2144,269.0693,91.0093,-3.8046e-05,-5.47e-06,0.0,0 STARLINK-5558,1 55631U 23021D   24179.84450087 -.00000547  00000-0 -38046-4 0  9990,2 55631  70.0002 327.2144 0003257 269.0693  91.0093 14.98328063 75453,6950.199,96.107,574.328,569.8,0.0
55631.0,STARLINK-5558,PAYLOAD,2024-06-28 12:17:25,14.98329869,0.0003352,70.0002,325.5311,268.3016,91.7759,-2.0081e-06,-1.17e-06,0.0,0 STARLINK-5558,1 55631U 23021D   24180.51209848 -.00000117  00000-0 -20081-5 0  9997,2 55631  70.0002 325.5311 0003352 268.3016  91.7759 14.98329869 75256,6950.193,96.107,574.388,569.729,0.0
55631.0,STARLINK-5558,PAYLOAD,2024-06-28 13:53:33,14.98331211,0.0003319,70.0004,325.3628,268.6759,91.402,8.4869e-06,8e-08,0.0,0 STARLINK-5558,1 55631U 23021D   24180.57885740  .00000008  00000-0  84869-5 0  9995,2 55631  70.0004 325.3628 0003319 268.6759  91.4020 14.98331211 75563,6950.189,96.107,574.361,569.747,0.0
55631.0,STARLINK-5558,PAYLOAD,2024-06-28 18:41:56,14.98341368,0.0003104,70.0005,324.8587,264.7787,95.3018,0.00010371,1.145e-05,0.0,0 STARLINK-5558,1 55631U 23021D   24180.77912740  .00001145  00000-0  10371-3 0  9996,2 55631  70.0005 324.8587 0003104 264.7787  95.3018 14.98341368 75296,6950.158,96.106,574.18,569.865,0.0
55631.0,STARLINK-5558,PAYLOAD,2024-06-29 02:42:37,14.98333642,0.0003195,69.9999,324.0151,274.6398,85.4396,0.00011471,1.276e-05,0.0,0 STARLINK-5558,1 55631U 23021D   24181.11293042  .00001276  00000-0  11471-3 0  9999,2 55631  69.9999 324.0151 0003195 274.6398  85.4396 14.98333642 75343,6950.182,96.107,574.267,569.826,0.0
55631.0,STARLINK-5558,PAYLOAD,2024-06-29 12:19:26,14.98324855,0.0002595,70.0016,323.0097,259.7549,100.3317,4.645e-05,4.61e-06,0.0,0 STARLINK-5558,1 55631U 23021D   24181.51349893  .00000461  00000-0  46450-4 0  9990,2 55631  70.0016 323.0097 0002595 259.7549 100.3317 14.98324855 75402,6950.209,96.107,573.877,570.27,0.0
55631.0,STARLINK-5558,PAYLOAD,2024-06-29 13:55:34,14.98323926,0.0002625,70.0015,322.8413,260.0903,99.996,3.4764e-05,3.22e-06,0.0,0 STARLINK-5558,1 55631U 23021D   24181.58026000  .00000322  00000-0  34764-4 0  9990,2 55631  70.0015 322.8413 0002625 260.0903  99.9960 14.98323926 75712,6950.212,96.107,573.901,570.252,0.0
55631.0,STARLINK-5558,PAYLOAD,2024-06-29 18:43:58,14.98321453,0.0002675,70.0014,322.3355,263.3692,96.7162,-1.4654e-06,-1.1e-06,0.0,0 STARLINK-5558,1 55631U 23021D   24181.78054351 -.00000110  00000-0 -14654-5 0  9996,2 55631  70.0014 322.3355 0002675 263.3692  96.7162 14.98321453 75742,6950.219,96.108,573.944,570.225,0.0
55631.0,STARLINK-5558,PAYLOAD,2024-06-30 13:57:35,14.98331316,0.0002841,70.0006,320.3144,268.1481,91.9353,-4.2192e-05,-5.96e-06,0.0,0 STARLINK-5558,1 55631U 23021D   24182.58165912 -.00000596  00000-0 -42192-4 0  9996,2 55631  70.0006 320.3144 0002841 268.1481  91.9353 14.98331316 75862,6950.189,96.107,574.028,570.079,0.0
55631.0,STARLINK-5558,PAYLOAD,2024-06-30 18:45:59,14.98336842,0.0002876,70.0006,319.8096,265.1748,94.9083,-3.1932e-05,-4.74e-06,0.0,0 STARLINK-5558,1 55631U 23021D   24182.78193479 -.00000474  00000-0 -31932-4 0  9992,2 55631  70.0006 319.8096 0002876 265.1748  94.9083 14.98336842 75594,6950.172,96.107,574.036,570.038,0.0
55631.0,STARLINK-5558,PAYLOAD,2024-07-01 12:23:28,14.98322368,0.0002982,70.0005,317.9574,271.3749,88.7068,7.3131e-05,7.8e-06,0.0,0 STARLINK-5558,1 55631U 23021D   24183.51630114  .00000780  00000-0  73131-4 0  9991,2 55631  70.0005 317.9574 0002982 271.3749  88.7068 14.98322368 75706,6950.216,96.107,574.154,570.009,0.0
55631.0,STARLINK-5558,PAYLOAD,2024-07-01 13:59:36,14.98321568,0.0003018,70.0005,317.7889,271.0938,88.9876,7.6816e-05,8.23e-06,0.0,0 STARLINK-5558,1 55631U 23021D   24183.58306173  .00000823  00000-0  76816-4 0  9994,2 55631  70.0005 317.7889 0003018 271.0938  88.9876 14.98321568 76016,6950.219,96.108,574.182,569.986,0.0
55631.0,STARLINK-5558,PAYLOAD,2024-07-01 18:48:00,14.98328999,0.000285,70.0008,317.2828,267.9308,92.1524,7.1052e-05,7.55e-06,0.0,0 STARLINK-5558,1 55631U 23021D   24183.78333733  .00000755  00000-0  71052-4 0  9999,2 55631  70.0008 317.2828 0002850 267.9308  92.1524 14.98328999 76040,6950.196,96.107,574.042,570.08,0.0
55631.0,STARLINK-5558,PAYLOAD,2024-07-02 12:25:29,14.98325673,0.0003009,70.0007,315.4316,270.8949,89.1865,2.98e-05,2.63e-06,0.0,0 STARLINK-5558,1 55631U 23021D   24184.51770109  .00000263  00000-0  29800-4 0  9991,2 55631  70.0007 315.4316 0003009 270.8949  89.1865 14.98325673 75850,6950.206,96.107,574.163,569.98,0.0
55631.0,STARLINK-5558,PAYLOAD,2024-07-02 14:01:37,14.98325646,0.000301,70.0007,315.2633,270.8839,89.1975,2.9184e-05,2.55e-06,0.0,0 STARLINK-5558,1 55631U 23021D   24184.58446128  .00000255  00000-0  29184-4 0  9995,2 55631  70.0007 315.2633 0003010 270.8839  89.1975 14.98325646 76167,6950.206,96.107,574.163,569.979,0.0
55631.0,STARLINK-5558,PAYLOAD,2024-07-02 18:50:01,14.98332742,0.0002933,70.0006,314.7586,269.8328,90.2495,6.067e-05,6.31e-06,0.0,0 STARLINK-5558,1 55631U 23021D   24184.78473574  .00000631  00000-0  60670-4 0  9995,2 55631  70.0006 314.7586 0002933 269.8328  90.2495 14.98332742 75895,6950.184,96.107,574.088,570.011,0.0
55631.0,STARLINK-5558,PAYLOAD,2024-07-03 12:27:30,14.98326167,0.0002883,70.0009,312.908,269.724,90.3589,-4.4418e-06,-1.46e-06,0.0,0 STARLINK-5558,1 55631U 23021D   24185.51910178 -.00000146  00000-0 -44418-5 0  9999,2 55631  70.0009 312.9080 0002883 269.7240  90.3589 14.98326167 76006,6950.205,96.107,574.073,570.066,0.0
55631.0,STARLINK-5558,PAYLOAD,2024-07-03 18:52:02,14.98330217,0.0002931,70.0009,312.2348,269.2143,90.868,2.4164e-05,1.95e-06,0.0,0 STARLINK-5558,1 55631U 23021D   24185.78613846  .00000195  00000-0  24164-4 0  9997,2 55631  70.0009 312.2348 0002931 269.2143  90.8680 14.98330217 76342,6950.192,96.107,574.094,570.02,0.0
55631.0,STARLINK-5558,PAYLOAD,2024-07-04 12:29:31,14.98320782,0.0002887,70.0008,310.3829,269.3591,90.7237,0.00016126,1.831e-05,0.0,0 STARLINK-5558,1 55631U 23021D   24186.52050130  .00001831  00000-0  16126-3 0  9997,2 55631  70.0008 310.3829 0002887 269.3591  90.7237 14.98320782 76154,6950.221,96.108,574.093,570.08,0.0
55631.0,STARLINK-5558,PAYLOAD,2024-07-04 14:05:39,14.98329374,0.0002865,70.0008,310.2143,270.4969,89.5862,-4.9016e-06,-1.51e-06,0.0,0 STARLINK-5558,1 55631U 23021D   24186.58725996 -.00000151  00000-0 -49016-5 0  9994,2 55631  70.0008 310.2143 0002865 270.4969  89.5862 14.98329374 76460,6950.195,96.107,574.051,570.069,0.0
55631.0,STARLINK-5558,PAYLOAD,2024-07-04 18:54:03,14.98332769,0.0002802,70.0008,309.7098,268.1269,91.9569,7.7423e-05,8.31e-06,0.0,0 STARLINK-5558,1 55631U 23021D   24186.78753530  .00000831  00000-0  77423-4 0  9996,2 55631  70.0008 309.7098 0002802 268.1269  91.9569 14.98332769 76193,6950.184,96.107,573.997,570.102,0.0
55631.0,STARLINK-5558,PAYLOAD,2024-07-05 14:07:40,14.9833036,0.0002845,70.0008,307.69,265.8158,94.2676,1.4353e-05,7.8e-07,0.0,0 STARLINK-5558,1 55631U 23021D   24187.58865751  .00000078  00000-0  14353-4 0  9990,2 55631  70.0008 307.6900 0002845 265.8158  94.2676 14.98330360 76617,6950.192,96.107,574.034,570.079,0.0
55631.0,STARLINK-5558,PAYLOAD,2024-07-05 17:19:55,14.98332178,0.0002831,70.0008,307.3533,266.5525,93.531,3.3169e-05,3.03e-06,0.0,0 STARLINK-5558,1 55631U 23021D   24187.72217577  .00000303  00000-0  33169-4 0  9990,2 55631  70.0008 307.3533 0002831 266.5525  93.5310 14.98332178 76635,6950.186,96.107,574.019,570.084,0.0
55631.0,STARLINK-5558,PAYLOAD,2024-07-06 01:20:36,14.9833022,0.0002971,70.0005,306.5121,268.13,91.9519,3.2306e-05,2.92e-06,0.0,0 STARLINK-5558,1 55631U 23021D   24188.05597636  .00000292  00000-0  32306-4 0  9993,2 55631  70.0005 306.5121 0002971 268.1300  91.9519 14.98330220 76381,6950.192,96.107,574.122,569.992,0.0
55631.0,STARLINK-5558,PAYLOAD,2024-07-06 14:09:41,14.98329983,0.0002991,70.0005,305.1663,268.4363,91.6454,-3.4126e-05,-5e-06,0.0,0 STARLINK-5558,1 55631U 23021D   24188.59005878 -.00000500  00000-0 -34126-4 0  9990,2 55631  70.0005 305.1663 0002991 268.4363  91.6454 14.98329983 76762,6950.193,96.107,574.137,569.979,0.0
55631.0,STARLINK-5558,PAYLOAD,2024-07-06 17:21:57,14.98330759,0.0002998,70.0005,304.8295,266.0607,94.0209,-3.5353e-05,-5.15e-06,0.0,0 STARLINK-5558,1 55631U 23021D   24188.72357808 -.00000515  00000-0 -35353-4 0  9997,2 55631  70.0005 304.8295 0002998 266.0607  94.0209 14.98330759 76781,6950.191,96.107,574.139,569.972,0.0
55631.0,STARLINK-5558,PAYLOAD,2024-07-07 01:22:37,14.98338199,0.0003163,70.0004,303.9855,274.972,85.1078,-0.00021481,-2.656e-05,0.0,0 STARLINK-5558,1 55631U 23021D   24189.05737753 -.00002656  00000-0 -21481-3 0  9999,2 55631  70.0004 303.9855 0003163 274.9720  85.1078 14.98338199 76535,6950.168,96.106,574.231,569.834,0.0
55631.0,STARLINK-5558,PAYLOAD,2024-07-07 14:11:42,14.98326842,0.0002998,70.0004,302.6394,269.8813,90.2003,3.5678e-05,3.33e-06,0.0,0 STARLINK-5558,1 55631U 23021D   24189.59145900  .00000333  00000-0  35678-4 0  9997,2 55631  70.0004 302.6394 0002998 269.8813  90.2003 14.98326842 76919,6950.203,96.107,574.151,569.984,0.0
55631.0,STARLINK-5558,PAYLOAD,2024-07-08 01:24:38,14.98333722,0.0003059,70.0005,301.461,272.7715,87.3094,-3.0582e-05,-4.58e-06,0.0,0 STARLINK-5558,1 55631U 23021D   24190.05877555 -.00000458  00000-0 -30582-4 0  9997,2 55631  70.0005 301.4610 0003059 272.7715  87.3094 14.98333722 76687,6950.181,96.107,574.172,569.92,0.0
55631.0,STARLINK-5558,PAYLOAD,2024-07-08 14:13:42,14.98324304,0.0003018,70.0004,300.1145,271.257,88.8244,0.00026363,3.054e-05,0.0,0 STARLINK-5558,1 55631U 23021D   24190.59285336  .00003054  00000-0  26363-3 0  9990,2 55631  70.0004 300.1145 0003018 271.2570  88.8244 14.98324304 77065,6950.211,96.107,574.173,569.978,0.0
